{"type": "FeatureCollection", "features": [ {"type": "Feature", "properties": {"norad_id": 66633, "name": "STARLINK-35948", "group": "last-30-days", "lat": 37.16072864081262, "lon": -114.47252850841637, "alt_km": 350.5963451236521, "timestamp": "2025-12-07T20:38:12.868147+00:00", "meta": {"OBJECT_NAME": "STARLINK-35948", "OBJECT_ID": "2025-271S", "EPOCH": "2025-12-07T06:00:04.999968", "MEAN_MOTION": 15.73598272, "ECCENTRICITY": 0.00010447, "INCLINATION": 53.1576, "RA_OF_ASC_NODE": 213.9131, "ARG_OF_PERICENTER": 88.2528, "MEAN_ANOMALY": 107.1207, "EPHEMERIS_TYPE": 0, "CLASSIFICATION_TYPE": "U", "NORAD_CAT_ID": 66633, "ELEMENT_SET_NO": 999, "REV_AT_EPOCH": 336, "BSTAR": -0.015451854, "MEAN_MOTION_DOT": -0.01915453, "MEAN_MOTION_DDOT": 0}, "tle": {"line1": "1 66633U 25271S   25341.25005787 -.01915453  00000+0 -15452-1 0  9997", "line2": "2 66633  53.1576 213.9131 0001044  88.2528 107.1207 15.73598272  3364"}}, "geometry": {"type": "Point", "coordinates": [-114.47252850841637, 37.16072864081262]}}, {"type": "Feature", "properties": {"norad_id": 66634, "name": "STARLINK-35967", "group": "last-30-days", "lat": 38.40747374670571, "lon": -112.63690411196826, "alt_km": 350.50815306541153, "timestamp": "2025-12-07T20:38:12.868159+00:00", "meta": {"OBJECT_NAME": "STARLINK-35967", "OBJECT_ID": "2025-271T", "EPOCH": "2025-12-07T06:00:04.999968", "MEAN_MOTION": 15.73598197, "ECCENTRICITY": 0.00011019, "INCLINATION": 53.1576, "RA_OF_ASC_NODE": 213.9089, "ARG_OF_PERICENTER": 109.9091, "MEAN_ANOMALY": 87.3802, "EPHEMERIS_TYPE": 0, "CLASSIFICATION_TYPE": "U", "NORAD_CAT_ID": 66634, "ELEMENT_SET_NO": 999, "REV_AT_EPOCH": 329, "BSTAR": -0.015454746, "MEAN_MOTION_DOT": -0.01915807, "MEAN_MOTION_DDOT": 0}, "tle": {"line1": "1 66634U 25271T   25341.25005787 -.01915807  00000+0 -15455-1 0  9994", "line2": "2 66634  53.1576 213.9089 0001101 109.9091  87.3802 15.73598197  3295"}}, "geometry": {"type": "Point", "coordinates": [-112.63690411196826, 38.40747374670571]}}, {"type": "Feature", "properties": {"norad_id": 66635, "name": "STARLINK-35955", "group": "last-30-days", "lat": 39.62972045317099, "lon": -110.72925175608819, "alt_km": 350.19836131572083, "timestamp": "2025-12-07T20:38:12.868170+00:00", "meta": {"OBJECT_NAME": "STARLINK-35955", "OBJECT_ID": "2025-271U", "EPOCH": "2025-12-07T06:00:04.999968", "MEAN_MOTION": 15.73605465, "ECCENTRICITY": 0.00010405, "INCLINATION": 53.1577, "RA_OF_ASC_NODE": 213.9046, "ARG_OF_PERICENTER": 90.4189, "MEAN_ANOMALY": 108.785, "EPHEMERIS_TYPE": 0, "CLASSIFICATION_TYPE": "U", "NORAD_CAT_ID": 66635, "ELEMENT_SET_NO": 999, "REV_AT_EPOCH": 336, "BSTAR": -0.01552022, "MEAN_MOTION_DOT": -0.01923278, "MEAN_MOTION_DDOT": 0}, "tle": {"line1": "1 66635U 25271U   25341.25005787 -.01923278  00000+0 -15520-1 0  9999", "line2": "2 66635  53.1577 213.9046 0001040  90.4189 108.7850 15.73605465  3360"}}, "geometry": {"type": "Point", "coordinates": [-110.72925175608819, 39.62972045317099]}}, {"type": "Feature", "properties": {"norad_id": 66636, "name": "STARLINK-35968", "group": "last-30-days", "lat": 40.81907060498858, "lon": -108.75405862810084, "alt_km": 349.97592517524936, "timestamp": "2025-12-07T20:38:12.868180+00:00", "meta": {"OBJECT_NAME": "STARLINK-35968", "OBJECT_ID": "2025-271V", "EPOCH": "2025-12-07T06:00:04.999968", "MEAN_MOTION": 15.73604176, "ECCENTRICITY": 9.237e-05, "INCLINATION": 53.1577, "RA_OF_ASC_NODE": 213.9006, "ARG_OF_PERICENTER": 68.066, "MEAN_ANOMALY": 133.0518, "EPHEMERIS_TYPE": 0, "CLASSIFICATION_TYPE": "U", "NORAD_CAT_ID": 66636, "ELEMENT_SET_NO": 999, "REV_AT_EPOCH": 336, "BSTAR": -0.015482208, "MEAN_MOTION_DOT": -0.0191902, "MEAN_MOTION_DDOT": 0}, "tle": {"line1": "1 66636U 25271V   25341.25005787 -.01919020  00000+0 -15482-1 0  9997", "line2": "2 66636  53.1577 213.9006 0000923  68.0660 133.0518 15.73604176  3361"}}, "geometry": {"type": "Point", "coordinates": [-108.75405862810084, 40.81907060498858]}}, {"type": "Feature", "properties": {"norad_id": 66637, "name": "STARLINK-35953", "group": "last-30-days", "lat": 41.97125569183295, "lon": -106.71139329291083, "alt_km": 349.8104263761552, "timestamp": "2025-12-07T20:38:12.868189+00:00", "meta": {"OBJECT_NAME": "STARLINK-35953", "OBJECT_ID": "2025-271W", "EPOCH": "2025-12-07T06:00:04.999968", "MEAN_MOTION": 15.73604558, "ECCENTRICITY": 0.00010098, "INCLINATION": 53.1576, "RA_OF_ASC_NODE": 213.8966, "ARG_OF_PERICENTER": 91.7866, "MEAN_ANOMALY": 111.2482, "EPHEMERIS_TYPE": 0, "CLASSIFICATION_TYPE": "U", "NORAD_CAT_ID": 66637, "ELEMENT_SET_NO": 999, "REV_AT_EPOCH": 336, "BSTAR": -0.015479283, "MEAN_MOTION_DOT": -0.01918809, "MEAN_MOTION_DDOT": 0}, "tle": {"line1": "1 66637U 25271W   25341.25005787 -.01918809  00000+0 -15479-1 0  9998", "line2": "2 66637  53.1576 213.8966 0001009  91.7866 111.2482 15.73604558  3364"}}, "geometry": {"type": "Point", "coordinates": [-106.71139329291083, 41.97125569183295]}}, {"type": "Feature", "properties": {"norad_id": 66638, "name": "STARLINK-35972", "group": "last-30-days", "lat": 43.085040702074295, "lon": -104.59570485542942, "alt_km": 349.8354953475555, "timestamp": "2025-12-07T20:38:12.868199+00:00", "meta": {"OBJECT_NAME": "STARLINK-35972", "OBJECT_ID": "2025-271X", "EPOCH": "2025-12-07T06:00:04.999968", "MEAN_MOTION": 15.73611448, "ECCENTRICITY": 6.53e-05, "INCLINATION": 53.1575, "RA_OF_ASC_NODE": 213.8929, "ARG_OF_PERICENTER": 73.9478, "MEAN_ANOMALY": 130.9983, "EPHEMERIS_TYPE": 0, "CLASSIFICATION_TYPE": "U", "NORAD_CAT_ID": 66638, "ELEMENT_SET_NO": 999, "REV_AT_EPOCH": 336, "BSTAR": -0.015549441, "MEAN_MOTION_DOT": -0.01926498, "MEAN_MOTION_DDOT": 0}, "tle": {"line1": "1 66638U 25271X   25341.25005787 -.01926498  00000+0 -15549-1 0  9990", "line2": "2 66638  53.1575 213.8929 0000653  73.9478 130.9983 15.73611448  3368"}}, "geometry": {"type": "Point", "coordinates": [-104.59570485542942, 43.085040702074295]}}, {"type": "Feature", "properties": {"norad_id": 66639, "name": "STARLINK-35908", "group": "last-30-days", "lat": 44.15787605575894, "lon": -102.40528144937831, "alt_km": 349.3758399176395, "timestamp": "2025-12-07T20:38:12.868209+00:00", "meta": {"OBJECT_NAME": "STARLINK-35908", "OBJECT_ID": "2025-271Y", "EPOCH": "2025-12-07T06:00:04.999968", "MEAN_MOTION": 15.73611434, "ECCENTRICITY": 0.00010701, "INCLINATION": 53.1578, "RA_OF_ASC_NODE": 213.8886, "ARG_OF_PERICENTER": 78.0773, "MEAN_ANOMALY": 128.7915, "EPHEMERIS_TYPE": 0, "CLASSIFICATION_TYPE": "U", "NORAD_CAT_ID": 66639, "ELEMENT_SET_NO": 999, "REV_AT_EPOCH": 336, "BSTAR": -0.015595615, "MEAN_MOTION_DOT": -0.01971949, "MEAN_MOTION_DDOT": 0}, "tle": {"line1": "1 66639U 25271Y   25341.25005787 -.01971949  00000+0 -15596-1 0  9994", "line2": "2 66639  53.1578 213.8886 0001070  78.0773 128.7915 15.73611434  3367"}}, "geometry": {"type": "Point", "coordinates": [-102.40528144937831, 44.15787605575894]}}, {"type": "Feature", "properties": {"norad_id": 66640, "name": "STARLINK-35921", "group": "last-30-days", "lat": 45.188255924940314, "lon": -100.131164358601, "alt_km": 349.4196740957959, "timestamp": "2025-12-07T20:38:12.868221+00:00", "meta": {"OBJECT_NAME": "STARLINK-35921", "OBJECT_ID": "2025-271Z", "EPOCH": "2025-12-07T06:00:04.999968", "MEAN_MOTION": 15.73606795, "ECCENTRICITY": 8.769e-05, "INCLINATION": 53.1577, "RA_OF_ASC_NODE": 213.885, "ARG_OF_PERICENTER": 84.7834, "MEAN_ANOMALY": 124.0031, "EPHEMERIS_TYPE": 0, "CLASSIFICATION_TYPE": "U", "NORAD_CAT_ID": 66640, "ELEMENT_SET_NO": 999, "REV_AT_EPOCH": 336, "BSTAR": -0.01553798, "MEAN_MOTION_DOT": -0.01925129, "MEAN_MOTION_DDOT": 0}, "tle": {"line1": "1 66640U 25271Z   25341.25005787 -.01925129  00000+0 -15538-1 0  9991", "line2": "2 66640  53.1577 213.8850 0000876  84.7834 124.0031 15.73606795  3366"}}, "geometry": {"type": "Point", "coordinates": [-100.131164358601, 45.188255924940314]}}, {"type": "Feature", "properties": {"norad_id": 66641, "name": "STARLINK-35923", "group": "last-30-days", "lat": 48.806211845094005, "lon": -90.2049899780986, "alt_km": 348.8739266568773, "timestamp": "2025-12-07T20:38:12.868231+00:00", "meta": {"OBJECT_NAME": "STARLINK-35923", "OBJECT_ID": "2025-271AA", "EPOCH": "2025-12-07T06:00:04.999968", "MEAN_MOTION": 15.73604243, "ECCENTRICITY": 9.503e-05, "INCLINATION": 53.1575, "RA_OF_ASC_NODE": 213.8682, "ARG_OF_PERICENTER": 96.2512, "MEAN_ANOMALY": 120.2059, "EPHEMERIS_TYPE": 0, "CLASSIFICATION_TYPE": "U", "NORAD_CAT_ID": 66641, "ELEMENT_SET_NO": 999, "REV_AT_EPOCH": 336, "BSTAR": -0.015528568, "MEAN_MOTION_DOT": -0.01924003, "MEAN_MOTION_DDOT": 0}, "tle": {"line1": "1 66641U 25271AA  25341.25005787 -.01924003  00000+0 -15529-1 0  9992", "line2": "2 66641  53.1575 213.8682 0000950  96.2512 120.2059 15.73604243  3366"}}, "geometry": {"type": "Point", "coordinates": [-90.2049899780986, 48.806211845094005]}}, {"type": "Feature", "properties": {"norad_id": 66642, "name": "STARLINK-35926", "group": "last-30-days", "lat": 47.986184195469946, "lon": -92.80771265287379, "alt_km": 348.915269329319, "timestamp": "2025-12-07T20:38:12.868241+00:00", "meta": {"OBJECT_NAME": "STARLINK-35926", "OBJECT_ID": "2025-271AB", "EPOCH": "2025-12-07T06:00:04.999968", "MEAN_MOTION": 15.73610406, "ECCENTRICITY": 8.412e-05, "INCLINATION": 53.1579, "RA_OF_ASC_NODE": 213.873, "ARG_OF_PERICENTER": 69.8286, "MEAN_ANOMALY": 144.7055, "EPHEMERIS_TYPE": 0, "CLASSIFICATION_TYPE": "U", "NORAD_CAT_ID": 66642, "ELEMENT_SET_NO": 999, "REV_AT_EPOCH": 312, "BSTAR": -0.015564293, "MEAN_MOTION_DOT": -0.01928169, "MEAN_MOTION_DDOT": 0}, "tle": {"line1": "1 66642U 25271AB  25341.25005787 -.01928169  00000+0 -15564-1 0  9999", "line2": "2 66642  53.1579 213.8730 0000841  69.8286 144.7055 15.73610406  3127"}}, "geometry": {"type": "Point", "coordinates": [-92.80771265287379, 47.986184195469946]}}]}